{"type":"FeatureCollection","features":[{"type":"Feature","id":24568123,"geometry":{"type":"Polygon","coordinates":[[[12.4778338,41.87032],[12.4779295,41.8703221],[12.478021,41.8703011],[12.4780985,41.8702591],[12.4781536,41.8702008],[12.4781805,41.8701324],[12.4781763,41.8700612],[12.4781415,41.8699947],[12.4780797,41.8699403],[12.4779976,41.8699036],[12.4779039,41.8698886],[12.4778077,41.8698971],[12.4777205,41.8699287],[12.4776519,41.8699797],[12.4776094,41.8700446],[12.4775978,41.8701162],[12.4776182,41.8701868],[12.4776685,41.8702485],[12.477743,41.8702946],[12.4778338,41.87032]]]},"properties":{"osm_id":"24568123","height_basis":"footprint-only","height_m":0,"material_color":"#949b98"}},{"type":"Feature","id":24568124,"geometry":{"type":"Polygon","coordinates":[[[12.4772215,41.8700662],[12.4772939,41.8700751],[12.4773662,41.8700655],[12.47743,41.8700385],[12.4774781,41.8699972],[12.477505,41.8699463],[12.4775074,41.8698916],[12.4774853,41.8698395],[12.477441,41.8697958],[12.4773798,41.8697657],[12.4773124,41.8697527],[12.477243,41.8697563],[12.4771786,41.8697761],[12.477126,41.86981],[12.4770906,41.8698546],[12.4770759,41.8699052],[12.4770835,41.8699567],[12.4771126,41.8700038],[12.4771602,41.8700416],[12.4772215,41.8700662]]]},"properties":{"osm_id":"24568124","height_basis":"footprint-only","height_m":0,"material_color":"#8b918e"}},{"type":"Feature","id":26840362,"geometry":{"type":"Polygon","coordinates":[[[12.4767514,41.8698568],[12.4768238,41.8698657],[12.4768961,41.8698561],[12.4769599,41.8698291],[12.477008,41.8697878],[12.4770349,41.8697369],[12.4770373,41.8696822],[12.4770152,41.8696301],[12.4769709,41.8695864],[12.4769097,41.8695563],[12.4768423,41.8695433],[12.4767729,41.8695469],[12.4767085,41.8695667],[12.4766559,41.8696006],[12.4766205,41.8696452],[12.4766058,41.8696958],[12.4766134,41.8697473],[12.4766425,41.8697944],[12.4766901,41.8698322],[12.4767514,41.8698568]]]},"properties":{"osm_id":"26840362","height_basis":"footprint-only","height_m":0,"material_color":"#7a7c7a"}},{"type":"Feature","id":77083160,"geometry":{"type":"Polygon","coordinates":[[[12.4770112,41.8705994],[12.477057,41.8705393],[12.4770837,41.8705514],[12.4772848,41.8702993],[12.4774461,41.8703727],[12.4775176,41.8702855],[12.477813,41.8704387],[12.4776321,41.8704633],[12.4776519,41.8705298],[12.4770112,41.8705994]]]},"properties":{"osm_id":"77083160","height_basis":"illustrative 3m per OSM-mapped floor","height_m":3.0,"material_color":"#aaa9a1","levels":1.0}},{"type":"Feature","id":77083162,"geometry":{"type":"Polygon","coordinates":[[[12.4772169,41.8685221],[12.4773802,41.8685946],[12.4775835,41.8683406],[12.4774203,41.8682681],[12.4772169,41.8685221]]]},"properties":{"osm_id":"77083162","height_basis":"footprint-only","height_m":0,"material_color":"#a8b0ae"}},{"type":"Feature","id":77083163,"geometry":{"type":"Polygon","coordinates":[[[12.4783728,41.8689825],[12.4784757,41.8688609],[12.4781477,41.868707],[12.4780449,41.8688286],[12.4783728,41.8689825]]]},"properties":{"osm_id":"77083163","height_basis":"illustrative 3m per OSM-mapped floor","height_m":6.0,"material_color":"#cccccc","levels":2.0}},{"type":"Feature","id":77083164,"geometry":{"type":"Polygon","coordinates":[[[12.4779448,41.8697581],[12.4783023,41.8693185],[12.4781088,41.8692313],[12.4777514,41.8696709],[12.4779448,41.8697581]]]},"properties":{"osm_id":"77083164","height_basis":"illustrative 3m per OSM-mapped floor","height_m":6.0,"material_color":"#88908f","levels":2.0}},{"type":"Feature","id":77083174,"geometry":{"type":"Polygon","coordinates":[[[12.4759795,41.8694673],[12.4761091,41.869526],[12.4761496,41.8694766],[12.47602,41.8694178],[12.4759795,41.8694673]]]},"properties":{"osm_id":"77083174","height_basis":"footprint-only","height_m":0,"material_color":"#585f5d"}},{"type":"Feature","id":77083175,"geometry":{"type":"Polygon","coordinates":[[[12.4766865,41.867071],[12.4769331,41.8671909],[12.4770509,41.8670567],[12.4768042,41.8669368],[12.4766865,41.867071]]]},"properties":{"osm_id":"77083175","height_basis":"footprint-only","height_m":0,"material_color":"#7a7e7b"}},{"type":"Feature","id":77083177,"geometry":{"type":"Polygon","coordinates":[[[12.4779385,41.8689544],[12.4782664,41.8691082],[12.4783728,41.8689825],[12.4780449,41.8688286],[12.4779385,41.8689544]]]},"properties":{"osm_id":"77083177","height_basis":"illustrative 3m per OSM-mapped floor","height_m":6.0,"material_color":"#a9adaa","levels":2.0}},{"type":"Feature","id":77083179,"geometry":{"type":"Polygon","coordinates":[[[12.4788819,41.8696611],[12.4790918,41.869644],[12.4790742,41.8695247],[12.4790718,41.8695078],[12.4788619,41.8695249],[12.4788819,41.8696611]]]},"properties":{"osm_id":"77083179","height_basis":"footprint-only","height_m":0,"material_color":"#757571"}},{"type":"Feature","id":77083182,"geometry":{"type":"Polygon","coordinates":[[[12.4763037,41.8698334],[12.4763755,41.8697455],[12.4755791,41.8693842],[12.4755623,41.8694047],[12.4754152,41.869338],[12.4753601,41.8694053],[12.4760346,41.8697113],[12.4763037,41.8698334]]]},"properties":{"osm_id":"77083182","height_basis":"footprint-only","height_m":0,"material_color":"#8b8d89"}},{"type":"Feature","id":77083195,"geometry":{"type":"Polygon","coordinates":[[[12.4787902,41.870292],[12.4789595,41.8702747],[12.4789372,41.8701542],[12.4787679,41.8701716],[12.4787902,41.870292]]]},"properties":{"osm_id":"77083195","height_basis":"footprint-only","height_m":0,"material_color":"#aaa9a1"}},{"type":"Feature","id":77083208,"geometry":{"type":"Polygon","coordinates":[[[12.4758174,41.8699769],[12.4760864,41.870099],[12.4763037,41.8698334],[12.4760346,41.8697113],[12.4758174,41.8699769]]]},"properties":{"osm_id":"77083208","height_basis":"footprint-only","height_m":0,"material_color":"#848784"}},{"type":"Feature","id":77083212,"geometry":{"type":"Polygon","coordinates":[[[12.4776007,41.8684366],[12.4773711,41.8686979],[12.4776271,41.8688227],[12.4778567,41.8685613],[12.4776007,41.8684366]]]},"properties":{"osm_id":"77083212","height_basis":"illustrative 3m per OSM-mapped floor","height_m":6.0,"material_color":"#a6a8a2","levels":2.0}},{"type":"Feature","id":77083225,"geometry":{"type":"Polygon","coordinates":[[[12.476475,41.8698941],[12.4765243,41.869834],[12.4775176,41.8702855],[12.4774461,41.8703727],[12.4772848,41.8702993],[12.4773069,41.8702723],[12.476475,41.8698941]]]},"properties":{"osm_id":"77083225","height_basis":"illustrative 3m per OSM-mapped floor","height_m":6.0,"material_color":"#909895","levels":2.0}},{"type":"Feature","id":77083233,"geometry":{"type":"Polygon","coordinates":[[[12.4763294,41.867043],[12.4764882,41.8669101],[12.4763594,41.8668247],[12.4762005,41.8669576],[12.4763294,41.867043]]]},"properties":{"osm_id":"77083233","height_basis":"footprint-only","height_m":0,"material_color":"#848883"}},{"type":"Feature","id":77083235,"geometry":{"type":"Polygon","coordinates":[[[12.4770626,41.8694211],[12.4775053,41.8688838],[12.4773267,41.8688022],[12.476884,41.8693394],[12.4770626,41.8694211]]]},"properties":{"osm_id":"77083235","height_basis":"illustrative 3m per OSM-mapped floor","height_m":9.0,"material_color":"#cccccb","levels":3.0}},{"type":"Feature","id":77083239,"geometry":{"type":"Polygon","coordinates":[[[12.4762147,41.8701383],[12.477057,41.8705393],[12.4770837,41.8705514],[12.4772848,41.8702993],[12.4773069,41.8702723],[12.476475,41.8698941],[12.4764312,41.8698742],[12.4762147,41.8701383]]]},"properties":{"osm_id":"77083239","height_basis":"illustrative 3m per OSM-mapped floor","height_m":6.0,"material_color":"#818882","levels":2.0}},{"type":"Feature","id":77083242,"geometry":{"type":"Polygon","coordinates":[[[12.4769796,41.8668593],[12.4770772,41.86682],[12.4769383,41.8666287],[12.4768408,41.8666679],[12.4769796,41.8668593]]]},"properties":{"osm_id":"77083242","height_basis":"footprint-only","height_m":0,"material_color":"#887f7c"}},{"type":"Feature","id":77163460,"geometry":{"type":"Polygon","coordinates":[[[12.4819818,41.8667637],[12.4819495,41.8667662],[12.4819473,41.866892],[12.4819975,41.8668885],[12.4820077,41.8669697],[12.4821888,41.8669519],[12.4824555,41.8668571],[12.4824973,41.8668378],[12.4825252,41.8668141],[12.4825272,41.8667903],[12.4825192,41.8667696],[12.4824814,41.8667562],[12.4824476,41.8667488],[12.4824378,41.8667143],[12.4819818,41.8667637]]]},"properties":{"osm_id":"77163460","height_basis":"footprint-only","height_m":0,"material_color":"#aaa9a1"}},{"type":"Feature","id":77163469,"geometry":{"type":"Polygon","coordinates":[[[12.481781,41.8664787],[12.4818026,41.866596],[12.4822684,41.8665486],[12.482264,41.8665248],[12.4822468,41.8664313],[12.4818424,41.8664724],[12.481781,41.8664787]]]},"properties":{"osm_id":"77163469","height_basis":"footprint-only","height_m":0,"material_color":"#9e9d96"}},{"type":"Feature","id":77163502,"geometry":{"type":"Polygon","coordinates":[[[12.4818424,41.8664724],[12.4818348,41.8664031],[12.4817463,41.8664126],[12.4817744,41.8665825],[12.4817472,41.8665869],[12.4817512,41.8666314],[12.4820438,41.8666062],[12.4820517,41.8666536],[12.4822807,41.8666358],[12.4822767,41.8666151],[12.4824021,41.8666047],[12.4824041,41.8666358],[12.482456,41.8666287],[12.4824258,41.8664657],[12.4823746,41.8664714],[12.4823822,41.8665128],[12.482264,41.8665248],[12.4822684,41.8665486],[12.4818026,41.866596],[12.481781,41.8664787],[12.4818424,41.8664724]]]},"properties":{"osm_id":"77163502","height_basis":"footprint-only","height_m":0,"material_color":"#6c706f"}},{"type":"Feature","id":77181141,"geometry":{"type":"Polygon","coordinates":[[[12.4797712,41.8669358],[12.4797606,41.8668632],[12.4799603,41.8668469],[12.479971,41.8669196],[12.4797712,41.8669358]]]},"properties":{"osm_id":"77181141","height_basis":"illustrative 3m per OSM-mapped floor","height_m":3.0,"material_color":"#a39e90","levels":1.0}},{"type":"Feature","id":77181143,"geometry":{"type":"Polygon","coordinates":[[[12.4798955,41.8667999],[12.4806485,41.8667278],[12.4806295,41.866574],[12.4798662,41.8666461],[12.4798955,41.8667999]]]},"properties":{"osm_id":"77181143","height_basis":"illustrative 3m per OSM-mapped floor","height_m":6.0,"material_color":"#8f8b88","levels":2.0}},{"type":"Feature","id":77181146,"geometry":{"type":"Polygon","coordinates":[[[12.4797959,41.8671037],[12.4798319,41.8671008],[12.4798975,41.8670954],[12.4799653,41.8670899],[12.4800457,41.8670833],[12.4801171,41.8670775],[12.4801818,41.8670723],[12.4802531,41.8670665],[12.4803089,41.8670606],[12.4803571,41.8670576],[12.4804041,41.8670544],[12.4804411,41.867052],[12.4804796,41.8670487],[12.4805212,41.8670446],[12.4804965,41.8668767],[12.479971,41.8669196],[12.4797712,41.8669358],[12.4797959,41.8671037]]]},"properties":{"osm_id":"77181146","height_basis":"illustrative 3m per OSM-mapped floor","height_m":24.0,"material_color":"#92938e","levels":8.0}},{"type":"Feature","id":77181152,"geometry":{"type":"Polygon","coordinates":[[[12.479814,41.8663182],[12.4798386,41.8664638],[12.4805692,41.8663988],[12.4805375,41.8662538],[12.479814,41.8663182]]]},"properties":{"osm_id":"77181152","height_basis":"illustrative 3m per OSM-mapped floor","height_m":6.0,"material_color":"#888482","levels":2.0}},{"type":"Feature","id":77181707,"geometry":{"type":"Polygon","coordinates":[[[12.4799404,41.8680523],[12.4801387,41.8680335],[12.4801298,41.8679774],[12.4813262,41.8678826],[12.4813326,41.8679201],[12.4815406,41.8679004],[12.4815059,41.8676974],[12.4811245,41.8677341],[12.4804113,41.8678015],[12.4799057,41.8678493],[12.4799136,41.8678954],[12.4799404,41.8680523]]]},"properties":{"osm_id":"77181707","height_basis":"illustrative 3m per OSM-mapped floor","height_m":6.0,"material_color":"#8e827c","levels":2.0}},{"type":"Feature","id":77181708,"geometry":{"type":"Polygon","coordinates":[[[12.481673,41.869988],[12.4818765,41.8699711],[12.4817775,41.8693078],[12.481574,41.8693246],[12.481673,41.869988]]]},"properties":{"osm_id":"77181708","height_basis":"footprint-only","height_m":0,"material_color":"#828583"}},{"type":"Feature","id":77181709,"geometry":{"type":"Polygon","coordinates":[[[12.4814521,41.8686284],[12.4816383,41.8686126],[12.4815999,41.8683544],[12.4815752,41.8681931],[12.4815388,41.8679629],[12.4813526,41.8679787],[12.4814521,41.8686284]]]},"properties":{"osm_id":"77181709","height_basis":"footprint-only","height_m":0,"material_color":"#717474"}},{"type":"Feature","id":77181710,"geometry":{"type":"Polygon","coordinates":[[[12.4815752,41.8681931],[12.4815999,41.8683544],[12.4816381,41.8683511],[12.4816134,41.8681899],[12.4815752,41.8681931]]]},"properties":{"osm_id":"77181710","height_basis":"footprint-only","height_m":0,"material_color":"#acaca8"}},{"type":"Feature","id":77181711,"geometry":{"type":"Polygon","coordinates":[[[12.4802809,41.870091],[12.4804646,41.8700758],[12.4803694,41.8694375],[12.4801857,41.8694527],[12.4802809,41.870091]]]},"properties":{"osm_id":"77181711","height_basis":"illustrative 3m per OSM-mapped floor","height_m":6.0,"material_color":"#979792","levels":2.0}},{"type":"Feature","id":77181712,"geometry":{"type":"Polygon","coordinates":[[[12.4807935,41.8684605],[12.4807736,41.8684472],[12.4807683,41.8684304],[12.4807753,41.8684148],[12.4807989,41.868402],[12.4808212,41.8684021],[12.4808447,41.8684147],[12.4808515,41.8684351],[12.4808401,41.8684535],[12.4808223,41.8684617],[12.4807935,41.8684605]]]},"properties":{"osm_id":"77181712","height_basis":"footprint-only","height_m":0,"material_color":"#959691"}},{"type":"Feature","id":77181714,"geometry":{"type":"Polygon","coordinates":[[[12.4821098,41.8700499],[12.482983,41.8699694],[12.4829439,41.8697345],[12.4824056,41.8697841],[12.4823513,41.8694581],[12.4828897,41.8694085],[12.4828466,41.8691495],[12.4819734,41.86923],[12.4821098,41.8700499]]]},"properties":{"osm_id":"77181714","height_basis":"footprint-only","height_m":0,"material_color":"#aaa9a1"}},{"type":"Feature","id":77181717,"geometry":{"type":"Polygon","coordinates":[[[12.4826383,41.8686357],[12.4825937,41.8686403],[12.4825824,41.8685789],[12.4818746,41.8686514],[12.481973,41.8691843],[12.4826808,41.8691118],[12.4826519,41.8689551],[12.4826965,41.8689506],[12.4827188,41.8690716],[12.4829299,41.86905],[12.4828391,41.8685578],[12.4826279,41.8685794],[12.4826383,41.8686357]]]},"properties":{"osm_id":"77181717","height_basis":"footprint-only","height_m":0,"material_color":"#aaa9a1"}},{"type":"Feature","id":77181718,"geometry":{"type":"Polygon","coordinates":[[[12.4800799,41.8688251],[12.4801077,41.8690116],[12.4801498,41.8690081],[12.4801713,41.8691522],[12.4801292,41.8691557],[12.4801591,41.8693563],[12.4803139,41.8693435],[12.480284,41.8691433],[12.4802412,41.8691469],[12.4802197,41.8690031],[12.4802626,41.8689996],[12.4802346,41.8688123],[12.4800799,41.8688251]]]},"properties":{"osm_id":"77181718","height_basis":"illustrative 3m per OSM-mapped floor","height_m":6.0,"material_color":"#9b9d98","levels":2.0}},{"type":"Feature","id":77181721,"geometry":{"type":"Polygon","coordinates":[[[12.4800663,41.8687569],[12.4801775,41.8687446],[12.4800639,41.8680977],[12.4799528,41.8681083],[12.4800663,41.8687569]]]},"properties":{"osm_id":"77181721","height_basis":"illustrative 3m per OSM-mapped floor","height_m":6.0,"material_color":"#9ea09a","levels":2.0}},{"type":"Feature","id":77181722,"geometry":{"type":"Polygon","coordinates":[[[12.4809867,41.8696369],[12.4809668,41.8696236],[12.4809615,41.8696068],[12.4809684,41.8695912],[12.480992,41.8695784],[12.4810144,41.8695784],[12.4810379,41.8695911],[12.4810447,41.8696115],[12.4810333,41.8696299],[12.4810155,41.869638],[12.4809867,41.8696369]]]},"properties":{"osm_id":"77181722","height_basis":"footprint-only","height_m":0,"material_color":"#797c76"}},{"type":"Feature","id":130039228,"geometry":{"type":"Polygon","coordinates":[[[12.477754,41.8669966],[12.4778097,41.866991],[12.4778054,41.8669597],[12.4783099,41.866908],[12.4783193,41.8669678],[12.4783635,41.8669646],[12.478365,41.8669774],[12.4784924,41.8669652],[12.4783584,41.8662983],[12.4779703,41.8663385],[12.4779541,41.8662473],[12.4775729,41.8662895],[12.4776621,41.8667623],[12.4777093,41.8667559],[12.477754,41.8669966]]]},"properties":{"osm_id":"130039228","height_basis":"footprint-only","height_m":0,"material_color":"#a0a19b"}},{"type":"Feature","id":130039236,"geometry":{"type":"Polygon","coordinates":[[[12.4765287,41.8667343],[12.4765321,41.8667505],[12.4765422,41.8667652],[12.4765578,41.8667767],[12.4765775,41.8667842],[12.4766018,41.8667867],[12.4766257,41.8667828],[12.4766464,41.8667732],[12.4766615,41.8667588],[12.476669,41.8667414],[12.4766681,41.8667232],[12.4766589,41.8667063],[12.4766425,41.8666928],[12.4766208,41.8666842],[12.476599,41.8666817],[12.4765773,41.8666843],[12.4765576,41.8666918],[12.476542,41.8667034],[12.4765321,41.8667181],[12.4765287,41.8667343]]]},"properties":{"osm_id":"130039236","height_basis":"footprint-only","height_m":0,"material_color":"#80847f"}},{"type":"Feature","id":130039243,"geometry":{"type":"Polygon","coordinates":[[[12.4776613,41.8673058],[12.4778019,41.8673727],[12.4778603,41.8673046],[12.4777198,41.8672377],[12.4776613,41.8673058]]]},"properties":{"osm_id":"130039243","height_basis":"illustrative 3m per OSM-mapped floor","height_m":6.0,"material_color":"#848885","levels":2.0}},{"type":"Feature","id":130039253,"geometry":{"type":"Polygon","coordinates":[[[12.4782289,41.8674458],[12.478354,41.8675053],[12.4789139,41.8677719],[12.4789759,41.8676997],[12.4787096,41.8675729],[12.4786799,41.8675588],[12.4782909,41.8673736],[12.4782289,41.8674458]]]},"properties":{"osm_id":"130039253","height_basis":"illustrative 3m per OSM-mapped floor","height_m":9.0,"material_color":"#cac9c1","levels":3.0}},{"type":"Feature","id":130039257,"geometry":{"type":"Polygon","coordinates":[[[12.4770672,41.8663758],[12.4771555,41.8663073],[12.4770865,41.866258],[12.4769982,41.8663264],[12.4770672,41.8663758]]]},"properties":{"osm_id":"130039257","height_basis":"footprint-only","height_m":0,"material_color":"#987873"}},{"type":"Feature","id":130039259,"geometry":{"type":"Polygon","coordinates":[[[12.4783232,41.8675757],[12.4782736,41.8676334],[12.4783912,41.8676894],[12.4784408,41.8676316],[12.4783232,41.8675757]]]},"properties":{"osm_id":"130039259","height_basis":"illustrative 3m per OSM-mapped floor","height_m":6.0,"material_color":"#9b9b97","levels":2.0}},{"type":"Feature","id":130039266,"geometry":{"type":"Polygon","coordinates":[[[12.4784182,41.8676865],[12.4785025,41.8677267],[12.4785427,41.8676798],[12.4784584,41.8676397],[12.4784182,41.8676865]]]},"properties":{"osm_id":"130039266","height_basis":"illustrative 3m per OSM-mapped floor","height_m":6.0,"material_color":"#8b7c76","levels":2.0}},{"type":"Feature","id":130039267,"geometry":{"type":"Polygon","coordinates":[[[12.4757782,41.8681504],[12.4756899,41.8681044],[12.4756218,41.8681768],[12.4757102,41.8682228],[12.4757782,41.8681504]]]},"properties":{"osm_id":"130039267","height_basis":"footprint-only","height_m":0,"material_color":"#aaa9a1"}},{"type":"Feature","id":130039273,"geometry":{"type":"Polygon","coordinates":[[[12.4759598,41.8683145],[12.4760862,41.8683725],[12.4761622,41.8682805],[12.4760358,41.8682226],[12.4759598,41.8683145]]]},"properties":{"osm_id":"130039273","height_basis":"footprint-only","height_m":0,"material_color":"#7c7e78"}},{"type":"Feature","id":130039281,"geometry":{"type":"Polygon","coordinates":[[[12.4756648,41.8679573],[12.4757879,41.8680176],[12.4758636,41.867932],[12.4757404,41.8678717],[12.4756648,41.8679573]]]},"properties":{"osm_id":"130039281","height_basis":"illustrative 3m per OSM-mapped floor","height_m":6.0,"material_color":"#aaa9a1","levels":2.0}},{"type":"Feature","id":130039284,"geometry":{"type":"Polygon","coordinates":[[[12.4777647,41.8687498],[12.4776951,41.868831],[12.4778155,41.8688881],[12.477885,41.8688069],[12.4777647,41.8687498]]]},"properties":{"osm_id":"130039284","height_basis":"illustrative 3m per OSM-mapped floor","height_m":3.0,"material_color":"#6c7372","levels":1.0}},{"type":"Feature","id":130039285,"geometry":{"type":"Polygon","coordinates":[[[12.4767369,41.8668501],[12.4768537,41.8667154],[12.4767763,41.8666782],[12.4766595,41.8668129],[12.4767369,41.8668501]]]},"properties":{"osm_id":"130039285","height_basis":"footprint-only","height_m":0,"material_color":"#7a7f7b"}},{"type":"Feature","id":130039289,"geometry":{"type":"Polygon","coordinates":[[[12.4766865,41.867071],[12.4768042,41.8669368],[12.4767138,41.8668928],[12.4765961,41.867027],[12.4766865,41.867071]]]},"properties":{"osm_id":"130039289","height_basis":"footprint-only","height_m":0,"material_color":"#93948c"}},{"type":"Feature","id":140893563,"geometry":{"type":"Polygon","coordinates":[[[12.4751382,41.8680212],[12.4764082,41.8686034],[12.476441,41.8685637],[12.475171,41.8679815],[12.4751382,41.8680212]]]},"properties":{"osm_id":"140893563","height_basis":"footprint-only","height_m":0,"material_color":"#6a6c68"}},{"type":"Feature","id":140893566,"geometry":{"type":"Polygon","coordinates":[[[12.4774804,41.8678391],[12.4775177,41.8677959],[12.4769143,41.8675067],[12.4761011,41.8671169],[12.4760639,41.8671599],[12.4768756,41.8675491],[12.4774804,41.8678391]]]},"properties":{"osm_id":"140893566","height_basis":"footprint-only","height_m":0,"material_color":"#717571"}},{"type":"Feature","id":140893570,"geometry":{"type":"Polygon","coordinates":[[[12.4756527,41.8675513],[12.4756218,41.8675841],[12.4757188,41.8676347],[12.4757497,41.867602],[12.4756527,41.8675513]]]},"properties":{"osm_id":"140893570","height_basis":"illustrative 3m per OSM-mapped floor","height_m":6.0,"material_color":"#aaa9a1","levels":2.0}},{"type":"Feature","id":140893582,"geometry":{"type":"Polygon","coordinates":[[[12.4772203,41.8683681],[12.4772849,41.8683989],[12.4773336,41.8683421],[12.4773338,41.8683115],[12.4773123,41.8683013],[12.4772685,41.8683119],[12.4772203,41.8683681]]]},"properties":{"osm_id":"140893582","height_basis":"illustrative 3m per OSM-mapped floor","height_m":6.0,"material_color":"#858681","levels":2.0}},{"type":"Feature","id":140893583,"geometry":{"type":"Polygon","coordinates":[[[12.4757251,41.8678165],[12.4758409,41.8676915],[12.4757322,41.8676356],[12.4757023,41.8676679],[12.4757682,41.8677018],[12.4757131,41.8677613],[12.4755886,41.8676974],[12.4755578,41.8677306],[12.4757251,41.8678165]]]},"properties":{"osm_id":"140893583","height_basis":"illustrative 3m per OSM-mapped floor","height_m":6.0,"material_color":"#aaa9a1","levels":2.0}},{"type":"Feature","id":219716882,"geometry":{"type":"Polygon","coordinates":[[[12.4768332,41.8692203],[12.476918,41.8691193],[12.4768644,41.8690943],[12.4767796,41.8691953],[12.4768332,41.8692203]]]},"properties":{"osm_id":"219716882","height_basis":"footprint-only","height_m":0,"material_color":"#7f8280"}},{"type":"Feature","id":219716883,"geometry":{"type":"Polygon","coordinates":[[[12.4793702,41.8690392],[12.4792442,41.8690493],[12.479249,41.8690821],[12.479375,41.8690721],[12.4793702,41.8690392]]]},"properties":{"osm_id":"219716883","height_basis":"illustrative 3m per OSM-mapped floor","height_m":6.0,"material_color":"#91948e","levels":2.0}},{"type":"Feature","id":219716886,"geometry":{"type":"Polygon","coordinates":[[[12.4793129,41.8686415],[12.4791297,41.8686562],[12.479153,41.8688181],[12.479159,41.8688597],[12.479187,41.8690539],[12.4792442,41.8690493],[12.4793702,41.8690392],[12.4793129,41.8686415]]]},"properties":{"osm_id":"219716886","height_basis":"illustrative 3m per OSM-mapped floor","height_m":6.0,"material_color":"#8b908d","levels":2.0}},{"type":"Feature","id":219716887,"geometry":{"type":"Polygon","coordinates":[[[12.4792954,41.8685198],[12.4792534,41.8682562],[12.4791761,41.8682629],[12.479072,41.8682712],[12.4790842,41.8683558],[12.4791189,41.8683531],[12.4791323,41.8684461],[12.4790976,41.8684489],[12.47911,41.8685346],[12.4792954,41.8685198]]]},"properties":{"osm_id":"219716887","height_basis":"illustrative 3m per OSM-mapped floor","height_m":6.0,"material_color":"#a7a7a0","levels":2.0}},{"type":"Feature","id":219716888,"geometry":{"type":"Polygon","coordinates":[[[12.4792141,41.867989],[12.4791163,41.8679657],[12.4788679,41.8682378],[12.4789679,41.8682884],[12.4790333,41.8682167],[12.4790778,41.8682378],[12.4791697,41.8682318],[12.4791761,41.8682629],[12.4792534,41.8682562],[12.4792141,41.867989]]]},"properties":{"osm_id":"219716888","height_basis":"illustrative 3m per OSM-mapped floor","height_m":9.0,"material_color":"#bbbdb6","levels":3.0}},{"type":"Feature","id":371717279,"geometry":{"type":"Polygon","coordinates":[[[12.4772758,41.8661733],[12.477315,41.8661778],[12.477349,41.8661932],[12.4773724,41.866217],[12.4773819,41.8662457],[12.4773758,41.866275],[12.4773552,41.8663002],[12.4773232,41.8663177],[12.4772846,41.8663247],[12.4772454,41.8663202],[12.4772115,41.8663049],[12.477188,41.8662811],[12.4771786,41.8662523],[12.4771846,41.8662231],[12.4772052,41.8661978],[12.4772372,41.8661804],[12.4772758,41.8661733]]]},"properties":{"osm_id":"371717279","height_basis":"footprint-only","height_m":0,"material_color":"#aaaea9"}},{"type":"Feature","id":371717280,"geometry":{"type":"Polygon","coordinates":[[[12.4781065,41.8657127],[12.4780096,41.8657243],[12.4780716,41.8660116],[12.4781686,41.866],[12.4781065,41.8657127]]]},"properties":{"osm_id":"371717280","height_basis":"illustrative 3m per OSM-mapped floor","height_m":3.0,"material_color":"#857b75","levels":1.0}},{"type":"Feature","id":371717281,"geometry":{"type":"Polygon","coordinates":[[[12.4778452,41.8661988],[12.4777747,41.8658236],[12.4775904,41.8658428],[12.4776041,41.8659157],[12.4776484,41.8661517],[12.4776609,41.866218],[12.4778452,41.8661988]]]},"properties":{"osm_id":"371717281","height_basis":"illustrative 3m per OSM-mapped floor","height_m":6.0,"material_color":"#828481","levels":2.0}},{"type":"Feature","id":371717282,"geometry":{"type":"Polygon","coordinates":[[[12.4762747,41.867089],[12.4762605,41.8671044],[12.4762798,41.8671142],[12.476294,41.8670988],[12.4762747,41.867089]]]},"properties":{"osm_id":"371717282","height_basis":"footprint-only","height_m":0,"material_color":"#838583"}},{"type":"Feature","id":374702550,"geometry":{"type":"Polygon","coordinates":[[[12.479324,41.8702117],[12.479316,41.8701398],[12.4793388,41.8701408],[12.4793347,41.8701139],[12.4793133,41.8701149],[12.4792372,41.8696308],[12.4792824,41.8696255],[12.4792181,41.869231],[12.4793978,41.8692141],[12.4794555,41.8695842],[12.4795252,41.870031],[12.4794769,41.870037],[12.4794849,41.8701009],[12.4794407,41.8702047],[12.479399,41.8702072],[12.479324,41.8702117]]]},"properties":{"osm_id":"374702550","height_basis":"illustrative 3m per OSM-mapped floor","height_m":6.0,"material_color":"#939793","levels":2.0}},{"type":"Feature","id":374702553,"geometry":{"type":"Polygon","coordinates":[[[12.4790027,41.8703562],[12.4789967,41.8703233],[12.4789938,41.8703074],[12.4790766,41.8702993],[12.4790796,41.8703148],[12.4790856,41.8703463],[12.4790027,41.8703562]]]},"properties":{"osm_id":"374702553","height_basis":"footprint-only","height_m":0,"material_color":"#aaa9a1"}},{"type":"Feature","id":390787498,"geometry":{"type":"Polygon","coordinates":[[[12.4786797,41.8674918],[12.4787166,41.8675105],[12.4787456,41.8675251],[12.4788715,41.8675888],[12.4789609,41.8674896],[12.4787698,41.867393],[12.4786797,41.8674918]]]},"properties":{"osm_id":"390787498","height_basis":"illustrative 3m per OSM-mapped floor","height_m":9.0,"material_color":"#c6c6bd","levels":3.0}},{"type":"Feature","id":390787500,"geometry":{"type":"Polygon","coordinates":[[[12.4790952,41.8672942],[12.4789522,41.867309],[12.4789172,41.8673127],[12.4788922,41.8673153],[12.4788843,41.8672729],[12.4788747,41.8672211],[12.4789271,41.8672156],[12.4789196,41.8671753],[12.4788672,41.8671807],[12.478853,41.8671046],[12.4790559,41.8670836],[12.4790952,41.8672942]]]},"properties":{"osm_id":"390787500","height_basis":"illustrative 3m per OSM-mapped floor","height_m":9.0,"material_color":"#ada99f","levels":3.0}},{"type":"Feature","id":390787502,"geometry":{"type":"Polygon","coordinates":[[[12.47896,41.8668055],[12.478904,41.866519],[12.4788516,41.8665247],[12.4788581,41.8665581],[12.478827,41.8665615],[12.4788205,41.8665281],[12.4787339,41.8665375],[12.4787448,41.8665934],[12.4787808,41.8665895],[12.478815,41.8667646],[12.4787791,41.8667685],[12.4787899,41.8668239],[12.4788502,41.8668174],[12.47896,41.8668055]]]},"properties":{"osm_id":"390787502","height_basis":"illustrative 3m per OSM-mapped floor","height_m":15.0,"material_color":"#a9aaa6","levels":5.0}},{"type":"Feature","id":390787503,"geometry":{"type":"Polygon","coordinates":[[[12.4786678,41.8673353],[12.4789288,41.867384],[12.4789172,41.8673127],[12.4788922,41.8673153],[12.4786678,41.8673353]]]},"properties":{"osm_id":"390787503","height_basis":"footprint-only","height_m":0,"material_color":"#898a84"}},{"type":"Feature","id":390787504,"geometry":{"type":"Polygon","coordinates":[[[12.4792141,41.867989],[12.4791927,41.8678614],[12.4791708,41.867731],[12.4790784,41.8677396],[12.4791163,41.8679657],[12.4792141,41.867989]]]},"properties":{"osm_id":"390787504","height_basis":"illustrative 3m × 4 owner-reported floors","height_m":12.0,"material_color":"#c0bfb7","levels":4,"venue":true}},{"type":"Feature","id":390787505,"geometry":{"type":"Polygon","coordinates":[[[12.4787096,41.8675729],[12.4787456,41.8675251],[12.4787166,41.8675105],[12.4786799,41.8675588],[12.4787096,41.8675729]]]},"properties":{"osm_id":"390787505","height_basis":"illustrative 3m per OSM-mapped floor","height_m":6.0,"material_color":"#abaaa2","levels":2.0}},{"type":"Feature","id":390787506,"geometry":{"type":"Polygon","coordinates":[[[12.478585,41.8664965],[12.4788803,41.8664662],[12.4788843,41.8662736],[12.4785137,41.866313],[12.478585,41.8664965]]]},"properties":{"osm_id":"390787506","height_basis":"illustrative 3m per OSM-mapped floor","height_m":15.0,"material_color":"#adb3b1","levels":5.0}},{"type":"Feature","id":390787507,"geometry":{"type":"Polygon","coordinates":[[[12.4789522,41.867309],[12.4790952,41.8672942],[12.4791392,41.867416],[12.4789699,41.8673919],[12.4789522,41.867309]]]},"properties":{"osm_id":"390787507","height_basis":"illustrative 3m per OSM-mapped floor","height_m":9.0,"material_color":"#989993","levels":3.0}},{"type":"Feature","id":390787508,"geometry":{"type":"Polygon","coordinates":[[[12.4780934,41.8671681],[12.4780984,41.8671955],[12.4781625,41.8672127],[12.4783331,41.8672584],[12.4783124,41.8671457],[12.4780934,41.8671681]]]},"properties":{"osm_id":"390787508","height_basis":"illustrative 3m per OSM-mapped floor","height_m":6.0,"material_color":"#7b7f7a","levels":2.0}},{"type":"Feature","id":390787509,"geometry":{"type":"Polygon","coordinates":[[[12.4778968,41.867205],[12.4781348,41.8672694],[12.4781625,41.8672127],[12.4780984,41.8671955],[12.4779243,41.8671485],[12.4778968,41.867205]]]},"properties":{"osm_id":"390787509","height_basis":"illustrative 3m per OSM-mapped floor","height_m":6.0,"material_color":"#7f8683","levels":2.0}},{"type":"Feature","id":390787510,"geometry":{"type":"Polygon","coordinates":[[[12.4788528,41.8676096],[12.479076,41.8677211],[12.4790784,41.8677396],[12.4791708,41.867731],[12.479132,41.8675146],[12.4789985,41.8674479],[12.4789609,41.8674896],[12.4788715,41.8675888],[12.4788528,41.8676096]]]},"properties":{"osm_id":"390787510","height_basis":"illustrative 3m per OSM-mapped floor","height_m":9.0,"material_color":"#bdbdb5","levels":3.0}},{"type":"Feature","id":390787511,"geometry":{"type":"Polygon","coordinates":[[[12.4786996,41.867023],[12.4786757,41.8669007],[12.4788626,41.8668805],[12.4788502,41.8668174],[12.47896,41.8668055],[12.4789962,41.8669909],[12.4786996,41.867023]]]},"properties":{"osm_id":"390787511","height_basis":"illustrative 3m per OSM-mapped floor","height_m":9.0,"material_color":"#8b8e8a","levels":3.0}},{"type":"Feature","id":390787512,"geometry":{"type":"Polygon","coordinates":[[[12.478614,41.8671034],[12.4787597,41.8670885],[12.4787944,41.8672816],[12.4788843,41.8672729],[12.4788922,41.8673153],[12.4786678,41.8673353],[12.4786418,41.8672569],[12.478614,41.8671034]]]},"properties":{"osm_id":"390787512","height_basis":"illustrative 3m per OSM-mapped floor","height_m":6.0,"material_color":"#8e8e89","levels":2.0}},{"type":"Feature","id":390787513,"geometry":{"type":"Polygon","coordinates":[[[12.4785468,41.8668372],[12.4786828,41.8668208],[12.4786762,41.8667903],[12.4786102,41.8667982],[12.4785679,41.866603],[12.478636,41.8665948],[12.478632,41.8665764],[12.4784939,41.866593],[12.4785468,41.8668372]]]},"properties":{"osm_id":"390787513","height_basis":"illustrative 3m per OSM-mapped floor","height_m":6.0,"material_color":"#a19f98","levels":2.0}},{"type":"Feature","id":390787514,"geometry":{"type":"Polygon","coordinates":[[[12.4783124,41.8671457],[12.4783331,41.8672584],[12.4783775,41.8672671],[12.4784542,41.8672821],[12.4784501,41.8672596],[12.4785754,41.8672469],[12.4785784,41.8672634],[12.4786418,41.8672569],[12.478614,41.8671034],[12.4783104,41.8671343],[12.4783124,41.8671457]]]},"properties":{"osm_id":"390787514","height_basis":"illustrative 3m per OSM-mapped floor","height_m":6.0,"material_color":"#a0a09b","levels":2.0}},{"type":"Feature","id":425093503,"geometry":{"type":"Polygon","coordinates":[[[12.4782786,41.866172],[12.4784125,41.8661597],[12.4783334,41.8656801],[12.4783271,41.8656419],[12.4781932,41.8656542],[12.4782786,41.866172]]]},"properties":{"osm_id":"425093503","height_basis":"illustrative 3m per OSM-mapped floor","height_m":3.0,"material_color":"#8c918d","levels":1.0}},{"type":"Feature","id":483442996,"geometry":{"type":"Polygon","coordinates":[[[12.4771313,41.8660159],[12.4770846,41.8659791],[12.4770809,41.8659525],[12.4772337,41.8658465],[12.4772641,41.8658476],[12.4773118,41.865886],[12.4771313,41.8660159]]]},"properties":{"osm_id":"483442996","height_basis":"illustrative 3m per OSM-mapped floor","height_m":6.0,"material_color":"#838581","levels":2.0}},{"type":"Feature","id":548344780,"geometry":{"type":"Polygon","coordinates":[[[12.4785384,41.8696412],[12.4785611,41.8696348],[12.4785854,41.869634],[12.4786112,41.8696397],[12.4786329,41.8696516],[12.4786478,41.8696683],[12.4786541,41.8696878],[12.4786511,41.8697078],[12.4786391,41.8697258],[12.4786196,41.8697396],[12.4785949,41.8697476],[12.478568,41.8697489],[12.4785446,41.8697441],[12.4785243,41.8697341],[12.4785092,41.86972],[12.4785007,41.869703],[12.4784996,41.869685],[12.4785061,41.8696675],[12.4785194,41.8696524],[12.4785384,41.8696412]]]},"properties":{"osm_id":"548344780","height_basis":"illustrative 3m per OSM-mapped floor","height_m":3.0,"material_color":"#9fa098","levels":1.0}},{"type":"Feature","id":966509677,"geometry":{"type":"Polygon","coordinates":[[[12.4803525,41.8703561],[12.4803238,41.8701732],[12.4804195,41.8701649],[12.4804359,41.8702691],[12.4818292,41.870148],[12.4818116,41.8700361],[12.4819225,41.8700265],[12.4819524,41.8702166],[12.4803525,41.8703561]]]},"properties":{"osm_id":"966509677","height_basis":"footprint-only","height_m":0,"material_color":"#aaa9a1"}},{"type":"Feature","id":967520739,"geometry":{"type":"Polygon","coordinates":[[[12.477634,41.8679346],[12.4777101,41.8679682],[12.4777404,41.8679302],[12.4776644,41.8678965],[12.477634,41.8679346]]]},"properties":{"osm_id":"967520739","height_basis":"footprint-only","height_m":0,"material_color":"#bbbeb8"}},{"type":"Feature","id":1166079651,"geometry":{"type":"Polygon","coordinates":[[[12.479874,41.8674895],[12.4801524,41.8675149],[12.4801164,41.8673211],[12.4798593,41.8674027],[12.4798073,41.8674076],[12.479822,41.8674944],[12.479874,41.8674895]]]},"properties":{"osm_id":"1166079651","height_basis":"footprint-only","height_m":0,"material_color":"#626c68"}},{"type":"Feature","id":1315933298,"geometry":{"type":"Polygon","coordinates":[[[12.4788855,41.8662174],[12.4787467,41.86623],[12.4787386,41.866182],[12.4787275,41.8661201],[12.4787252,41.8661074],[12.4788647,41.8660943],[12.4788855,41.8662174]]]},"properties":{"osm_id":"1315933298","height_basis":"illustrative 3m per OSM-mapped floor","height_m":6.0,"material_color":"#877975","levels":2.0}},{"type":"Feature","id":1315933299,"geometry":{"type":"Polygon","coordinates":[[[12.4787252,41.8661074],[12.4788647,41.8660943],[12.4788489,41.8659967],[12.4787585,41.8660056],[12.4787075,41.8660101],[12.4787252,41.8661074]]]},"properties":{"osm_id":"1315933299","height_basis":"illustrative 3m per OSM-mapped floor","height_m":9.0,"material_color":"#938a87","levels":3.0}},{"type":"Feature","id":1315933300,"geometry":{"type":"Polygon","coordinates":[[[12.4788275,41.8658762],[12.4787814,41.8656284],[12.47869,41.8656374],[12.478653,41.865641],[12.4786969,41.8658894],[12.4787371,41.8658851],[12.4788275,41.8658762]]]},"properties":{"osm_id":"1315933300","height_basis":"illustrative 3m per OSM-mapped floor","height_m":6.0,"material_color":"#8b918f","levels":2.0}},{"type":"Feature","id":1315933301,"geometry":{"type":"Polygon","coordinates":[[[12.4784544,41.8662563],[12.4786249,41.8662413],[12.4786173,41.8661933],[12.4786077,41.8661331],[12.4784372,41.8661481],[12.4784544,41.8662563]]]},"properties":{"osm_id":"1315933301","height_basis":"illustrative 3m per OSM-mapped floor","height_m":6.0,"material_color":"#777b78","levels":2.0}},{"type":"Feature","id":1315933302,"geometry":{"type":"Polygon","coordinates":[[[12.4786334,41.8660176],[12.4787075,41.8660101],[12.4787585,41.8660056],[12.4787371,41.8658851],[12.4786969,41.8658894],[12.4786135,41.865897],[12.4786334,41.8660176]]]},"properties":{"osm_id":"1315933302","height_basis":"illustrative 3m per OSM-mapped floor","height_m":9.0,"material_color":"#a6a19a","levels":3.0}},{"type":"Feature","id":1315933303,"geometry":{"type":"Polygon","coordinates":[[[12.4787585,41.8660056],[12.4788489,41.8659967],[12.4788275,41.8658762],[12.4787371,41.8658851],[12.4787585,41.8660056]]]},"properties":{"osm_id":"1315933303","height_basis":"illustrative 3m per OSM-mapped floor","height_m":3.0,"material_color":"#8c8e89","levels":1.0}},{"type":"Feature","id":1315945571,"geometry":{"type":"Polygon","coordinates":[[[12.4787249,41.865337],[12.4787106,41.8652636],[12.4785216,41.8652843],[12.4784961,41.8652871],[12.478498,41.8652966],[12.4785098,41.8653602],[12.4787249,41.865337]]]},"properties":{"osm_id":"1315945571","height_basis":"illustrative 3m per OSM-mapped floor","height_m":6.0,"material_color":"#aaa9a1","levels":2.0}},{"type":"Feature","id":1315945572,"geometry":{"type":"Polygon","coordinates":[[[12.478729,41.8653597],[12.4785928,41.8653739],[12.4786089,41.8654612],[12.4787458,41.8654468],[12.478729,41.8653597]]]},"properties":{"osm_id":"1315945572","height_basis":"illustrative 3m per OSM-mapped floor","height_m":6.0,"material_color":"#aaa9a1","levels":2.0}},{"type":"Feature","id":1315945573,"geometry":{"type":"Polygon","coordinates":[[[12.4787634,41.8655441],[12.478674,41.8655535],[12.4785742,41.865564],[12.4785557,41.8654669],[12.4786089,41.8654612],[12.4787458,41.8654468],[12.4787634,41.8655441]]]},"properties":{"osm_id":"1315945573","height_basis":"illustrative 3m per OSM-mapped floor","height_m":12.0,"material_color":"#aaa9a1","levels":4.0}},{"type":"Feature","id":1315947600,"geometry":{"type":"Polygon","coordinates":[[[12.4787814,41.8656284],[12.4787634,41.8655441],[12.478674,41.8655535],[12.47869,41.8656374],[12.4787814,41.8656284]]]},"properties":{"osm_id":"1315947600","height_basis":"illustrative 3m per OSM-mapped floor","height_m":3.0,"material_color":"#7d8082","levels":1.0}},{"type":"Feature","id":1315947601,"geometry":{"type":"Polygon","coordinates":[[[12.4785166,41.865655],[12.478653,41.865641],[12.47869,41.8656374],[12.478674,41.8655535],[12.4785742,41.865564],[12.4785312,41.865569],[12.478499,41.8655728],[12.4785166,41.865655]]]},"properties":{"osm_id":"1315947601","height_basis":"illustrative 3m per OSM-mapped floor","height_m":6.0,"material_color":"#bdbdba","levels":2.0}},{"type":"Feature","id":1316103151,"geometry":{"type":"Polygon","coordinates":[[[12.478439,41.8655137],[12.4783083,41.865525],[12.4783043,41.8655023],[12.4782809,41.8653837],[12.4785315,41.8653587],[12.4785355,41.8653794],[12.4784157,41.8653923],[12.4784326,41.8654796],[12.478439,41.8655137]]]},"properties":{"osm_id":"1316103151","height_basis":"illustrative 3m per OSM-mapped floor","height_m":6.0,"material_color":"#aaa9a1","levels":2.0}},{"type":"Feature","id":1316103152,"geometry":{"type":"Polygon","coordinates":[[[12.4783562,41.8656703],[12.4784705,41.8656594],[12.4784614,41.8656062],[12.4783498,41.8656168],[12.4783562,41.8656703]]]},"properties":{"osm_id":"1316103152","height_basis":"illustrative 3m per OSM-mapped floor","height_m":6.0,"material_color":"#90827b","levels":2.0}},{"type":"Feature","id":1316103153,"geometry":{"type":"Polygon","coordinates":[[[12.4783212,41.8655886],[12.478499,41.8655728],[12.4785312,41.865569],[12.4785216,41.8655215],[12.4784424,41.8655304],[12.478439,41.8655137],[12.4783083,41.865525],[12.4783212,41.8655886]]]},"properties":{"osm_id":"1316103153","height_basis":"illustrative 3m per OSM-mapped floor","height_m":6.0,"material_color":"#aaa9a1","levels":2.0}},{"type":"Feature","id":1316103154,"geometry":{"type":"Polygon","coordinates":[[[12.4784326,41.8654796],[12.4785557,41.8654669],[12.4786089,41.8654612],[12.4785928,41.8653739],[12.4785355,41.8653794],[12.4784157,41.8653923],[12.4784326,41.8654796]]]},"properties":{"osm_id":"1316103154","height_basis":"illustrative 3m per OSM-mapped floor","height_m":3.0,"material_color":"#aaa9a1","levels":1.0}},{"type":"Feature","id":1316103155,"geometry":{"type":"Polygon","coordinates":[[[12.478653,41.865641],[12.4785166,41.865655],[12.4784705,41.8656594],[12.4783562,41.8656703],[12.4783977,41.8659183],[12.4786135,41.865897],[12.4786969,41.8658894],[12.478653,41.865641]]]},"properties":{"osm_id":"1316103155","height_basis":"illustrative 3m per OSM-mapped floor","height_m":3.0,"material_color":"#949490","levels":1.0}},{"type":"Feature","id":1316103156,"geometry":{"type":"Polygon","coordinates":[[[12.4786334,41.8660176],[12.4785133,41.8660299],[12.478419,41.8660393],[12.4783977,41.8659183],[12.4786135,41.865897],[12.4786334,41.8660176]]]},"properties":{"osm_id":"1316103156","height_basis":"illustrative 3m per OSM-mapped floor","height_m":6.0,"material_color":"#91857e","levels":2.0}},{"type":"Feature","id":1316103157,"geometry":{"type":"Polygon","coordinates":[[[12.4785133,41.8660299],[12.4785244,41.8660912],[12.4786445,41.8660791],[12.4786334,41.8660176],[12.4787075,41.8660101],[12.4787252,41.8661074],[12.4787275,41.8661201],[12.4786077,41.8661331],[12.4784372,41.8661481],[12.478419,41.8660393],[12.4785133,41.8660299]]]},"properties":{"osm_id":"1316103157","height_basis":"illustrative 3m per OSM-mapped floor","height_m":12.0,"material_color":"#9e9d9a","levels":4.0}},{"type":"Feature","id":1316103158,"geometry":{"type":"Polygon","coordinates":[[[12.4786249,41.8662413],[12.4787467,41.86623],[12.4787386,41.866182],[12.4786173,41.8661933],[12.4786249,41.8662413]]]},"properties":{"osm_id":"1316103158","height_basis":"illustrative 3m per OSM-mapped floor","height_m":6.0,"material_color":"#96938e","levels":2.0}},{"type":"Feature","id":1316103161,"geometry":{"type":"Polygon","coordinates":[[[12.478276,41.8652387],[12.4782919,41.8653192],[12.478498,41.8652966],[12.4784961,41.8652871],[12.4785216,41.8652843],[12.4785182,41.8652671],[12.4785076,41.8652133],[12.4784351,41.8652212],[12.478276,41.8652387]]]},"properties":{"osm_id":"1316103161","height_basis":"illustrative 3m per OSM-mapped floor","height_m":6.0,"material_color":"#aaa9a1","levels":2.0}},{"type":"Feature","id":1316103162,"geometry":{"type":"Polygon","coordinates":[[[12.4782374,41.8655096],[12.4783043,41.8655023],[12.4782809,41.8653837],[12.4782767,41.8653664],[12.4782106,41.865374],[12.4782374,41.8655096]]]},"properties":{"osm_id":"1316103162","height_basis":"illustrative 3m per OSM-mapped floor","height_m":3.0,"material_color":"#aaa9a1","levels":1.0}},{"type":"Feature","id":1316103163,"geometry":{"type":"Polygon","coordinates":[[[12.4778153,41.8654184],[12.4779657,41.8654025],[12.4782106,41.865374],[12.4782767,41.8653664],[12.4782601,41.8652865],[12.4777989,41.8653396],[12.4778153,41.8654184]]]},"properties":{"osm_id":"1316103163","height_basis":"illustrative 3m per OSM-mapped floor","height_m":3.0,"material_color":"#aaa9a1","levels":1.0}},{"type":"Feature","id":1316103164,"geometry":{"type":"Polygon","coordinates":[[[12.4776819,41.8656463],[12.4780051,41.8656139],[12.4779925,41.8655444],[12.4777201,41.8655717],[12.4776694,41.8655768],[12.4776819,41.8656463]]]},"properties":{"osm_id":"1316103164","height_basis":"illustrative 3m per OSM-mapped floor","height_m":6.0,"material_color":"#7d716b","levels":2.0}},{"type":"Feature","id":1316103165,"geometry":{"type":"Polygon","coordinates":[[[12.4779925,41.8655444],[12.4779787,41.865469],[12.4777722,41.8654898],[12.4777065,41.8654964],[12.4777201,41.8655717],[12.4779925,41.8655444]]]},"properties":{"osm_id":"1316103165","height_basis":"illustrative 3m per OSM-mapped floor","height_m":6.0,"material_color":"#aaa9a1","levels":2.0}},{"type":"Feature","id":1316103166,"geometry":{"type":"Polygon","coordinates":[[[12.4779787,41.865469],[12.4779657,41.8654025],[12.4778153,41.8654184],[12.4777597,41.8654243],[12.4777722,41.8654898],[12.4779787,41.865469]]]},"properties":{"osm_id":"1316103166","height_basis":"illustrative 3m per OSM-mapped floor","height_m":6.0,"material_color":"#aaa9a1","levels":2.0}},{"type":"Feature","id":1527741900,"geometry":{"type":"Polygon","coordinates":[[[12.4764347,41.8680163],[12.4770204,41.8682883],[12.4770786,41.8682189],[12.4764929,41.8679468],[12.4764347,41.8680163]]]},"properties":{"osm_id":"1527741900","height_basis":"footprint-only","height_m":0,"material_color":"#5b6660"}},{"type":"Feature","id":1529360104,"geometry":{"type":"Polygon","coordinates":[[[12.4767199,41.86657],[12.4766723,41.8666019],[12.4766341,41.8665702],[12.4766817,41.8665384],[12.4767023,41.8665554],[12.4767199,41.86657]]]},"properties":{"osm_id":"1529360104","height_basis":"footprint-only","height_m":0,"material_color":"#727471"}}]}